NORAD_CAT_ID,OBJECT_NAME,OBJECT_TYPE,EPOCH,MEAN_MOTION,ECCENTRICITY,INCLINATION,RA_OF_ASC_NODE,ARG_OF_PERICENTER,MEAN_ANOMALY,BSTAR,MEAN_MOTION_DOT,MEAN_MOTION_DDOT,TLE_LINE0,TLE_LINE1,TLE_LINE2,SEMIMAJOR_AXIS,PERIOD,APOGEE,PERIGEE,DECAYED
52705.0,STARLINK-3844,PAYLOAD,2024-01-22 05:14:50,15.08777841,0.0002755,53.2197,24.3173,133.7941,226.3279,0.00084201,0.00013116,0.0,0 STARLINK-3844,1 52705U 22053BB  24022.21864368  .00013116  00000-0  84201-3 0  9999,2 52705  53.2197  24.3173 0002755 133.7941 226.3279 15.08777841 93512,6918.07,95.441,541.841,538.029,0.0
52705.0,STARLINK-3844,PAYLOAD,2024-01-23 03:30:13,15.08834833,0.0002177,53.2198,20.1525,122.387,237.7333,3.9562e-05,3.41e-06,0.0,0 STARLINK-3844,1 52705U 22053BB  24023.14599056  .00000341  00000-0  39562-4 0  9998,2 52705  53.2198  20.1525 0002177 122.3870 237.7333 15.08834833 93658,6917.896,95.438,541.267,538.255,0.0
52705.0,STARLINK-3844,PAYLOAD,2024-01-23 06:40:59,15.08837749,0.0001768,53.22,19.5581,112.445,247.673,6.8511e-05,8.02e-06,0.0,0 STARLINK-3844,1 52705U 22053BB  24023.27846951  .00000802  00000-0  68511-4 0  9999,2 52705  53.2200  19.5581 0001768 112.4450 247.6730 15.08837749 94106,6917.887,95.438,540.975,538.529,0.0
52705.0,STARLINK-3844,PAYLOAD,2024-01-24 06:31:46,15.08839698,0.0001771,53.22,15.1073,107.8201,252.2985,9.9468e-05,1.295e-05,0.0,0 STARLINK-3844,1 52705U 22053BB  24024.27207113  .00001295  00000-0  99468-4 0  9993,2 52705  53.2200  15.1073 0001771 107.8201 252.2985 15.08839698 93827,6917.881,95.438,540.971,538.521,0.0
52705.0,STARLINK-3844,PAYLOAD,2024-01-25 03:11:48,15.08828704,0.0001846,53.2201,11.2419,112.4359,247.6829,0.00015468,2.174e-05,0.0,0 STARLINK-3844,1 52705U 22053BB  24025.13319670  .00002174  00000-0  15468-3 0  9995,2 52705  53.2201  11.2419 0001846 112.4359 247.6829 15.08828704 93953,6917.915,95.438,541.057,538.503,0.0
52705.0,STARLINK-3844,PAYLOAD,2024-01-25 06:22:34,15.08844175,0.0001621,53.2199,10.6437,87.6007,272.517,3.0578e-05,1.99e-06,0.0,0 STARLINK-3844,1 52705U 22053BB  24025.26567282  .00000199  00000-0  30578-4 0  9998,2 52705  53.2199  10.6437 0001621  87.6007 272.5170 15.08844175 93974,6917.868,95.437,540.854,538.611,0.0
52705.0,STARLINK-3844,PAYLOAD,2024-01-26 03:02:35,15.08842394,0.0001766,53.2194,6.7794,75.6497,284.4691,6.8229e-06,-1.8e-06,0.0,0 STARLINK-3844,1 52705U 22053BB  24026.12679650 -.00000180  00000-0  68229-5 0  9993,2 52705  53.2194   6.7794 0001766  75.6497 284.4691 15.08842394 94108,6917.873,95.437,540.96,538.516,0.0
52705.0,STARLINK-3844,PAYLOAD,2024-01-26 06:13:21,15.08844573,0.0001776,53.22,6.1835,77.8863,282.2328,3.9613e-05,3.42e-06,0.0,0 STARLINK-3844,1 52705U 22053BB  24026.25927466  .00000342  00000-0  39613-4 0  9991,2 52705  53.2200   6.1835 0001776  77.8863 282.2328 15.08844573 94551,6917.866,95.437,540.96,538.503,0.0
52705.0,STARLINK-3844,PAYLOAD,2024-01-27 02:53:22,15.08838131,0.0001857,53.2207,2.3133,72.046,288.0735,1.2209e-05,-9.4e-07,0.0,0 STARLINK-3844,1 52705U 22053BB  24027.12040052 -.00000094  00000-0  12209-4 0  9992,2 52705  53.2207   2.3133 0001857  72.0460 288.0735 15.08838131 94253,6917.886,95.438,541.036,538.466,0.0
52705.0,STARLINK-3844,PAYLOAD,2024-01-27 07:39:31,15.08842923,0.0001963,53.2214,1.4153,69.5695,290.5508,3.8662e-05,3.27e-06,0.0,0 STARLINK-3844,1 52705U 22053BB  24027.31911638  .00000327  00000-0  38662-4 0  9999,2 52705  53.2214   1.4153 0001963  69.5695 290.5508 15.08842923 94713,6917.871,95.437,541.094,538.378,0.0
52705.0,STARLINK-3844,PAYLOAD,2024-01-28 04:19:32,15.08848895,0.0002117,53.2214,357.5511,66.8029,293.3186,4.0344e-05,3.54e-06,0.0,0 STARLINK-3844,1 52705U 22053BB  24028.18023251  .00000354  00000-0  40344-4 0  9990,2 52705  53.2214 357.5511 0002117  66.8029 293.3186 15.08848895 94413,6917.853,95.437,541.183,538.254,0.0
52705.0,STARLINK-3844,PAYLOAD,2024-01-28 21:48:47,15.0883391,0.0001921,53.2205,354.2877,88.8066,271.3146,8.295e-05,1.032e-05,0.0,0 STARLINK-3844,1 52705U 22053BB  24028.90887894  .00001032  00000-0  82950-4 0  9994,2 52705  53.2205 354.2877 0001921  88.8066 271.3146 15.08833910 94952,6917.899,95.438,541.093,538.435,0.0
52705.0,STARLINK-3844,PAYLOAD,2024-01-29 02:34:56,15.0884159,0.0001722,53.2191,353.3956,119.7776,240.3388,2.8532e-06,-2.43e-06,0.0,0 STARLINK-3844,1 52705U 22053BB  24029.10759509 -.00000243  00000-0  28532-5 0  9999,2 52705  53.2191 353.3956 0001722 119.7776 240.3388 15.08841590 94558,6917.876,95.437,540.932,538.549,0.0
52705.0,STARLINK-3844,PAYLOAD,2024-01-30 04:01:06,15.0885134,0.0001617,53.2193,348.6407,113.1076,247.0087,-5.9756e-05,-1.239e-05,0.0,0 STARLINK-3844,1 52705U 22053BB  24030.16743188 -.00001239  00000-0 -59756-4 0  9991,2 52705  53.2193 348.6407 0001617 113.1076 247.0087 15.08851340 94714,6917.846,95.437,540.829,538.592,0.0
52705.0,STARLINK-3844,PAYLOAD,2024-01-30 07:11:52,15.08855647,0.0001566,53.2186,348.0433,110.6334,249.4826,-7.9117e-05,-1.548e-05,0.0,0 STARLINK-3844,1 52705U 22053BB  24030.29990886 -.00001548  00000-0 -79117-4 0  9990,2 52705  53.2186 348.0433 0001566 110.6334 249.4826 15.08855647 95162,6917.833,95.437,540.781,538.614,0.0
52705.0,STARLINK-3844,PAYLOAD,2024-01-30 21:30:21,15.08840032,0.0001421,53.2192,345.3641,102.4959,257.6192,-6.7466e-06,-3.95e-06,0.0,0 STARLINK-3844,1 52705U 22053BB  24030.89607779 -.00000395  00000-0 -67466-5 0  9996,2 52705  53.2192 345.3641 0001421 102.4959 257.6192 15.08840032 95251,6917.88,95.438,540.728,538.762,0.0
52705.0,STARLINK-3844,PAYLOAD,2024-01-31 02:16:30,15.08841112,0.0001399,53.2184,344.4725,104.7937,255.321,5.3642e-05,5.66e-06,0.0,0 STARLINK-3844,1 52705U 22053BB  24031.09479471  .00000566  00000-0  53642-4 0  9993,2 52705  53.2184 344.4725 0001399 104.7937 255.3210 15.08841112 94851,6917.877,95.437,540.71,538.774,0.0
52705.0,STARLINK-3844,PAYLOAD,2024-02-01 00:31:54,15.08837379,0.0001422,53.219,340.3097,97.2263,262.8891,-4.67e-05,-1.031e-05,0.0,0 STARLINK-3844,1 52705U 22053BB  24032.02216335 -.00001031  00000-0 -46700-4 0  9992,2 52705  53.2190 340.3097 0001422  97.2263 262.8891 15.08837379 94993,6917.888,95.438,540.737,538.77,0.0
52705.0,STARLINK-3844,PAYLOAD,2024-02-02 03:33:29,15.08768935,0.0001869,53.219,335.2606,83.8654,276.2551,0.0011019,0.00017258,0.0,0 STARLINK-3844,1 52705U 22053BB  24033.14825589  .00017258  00000-0  11019-2 0  9992,2 52705  53.2190 335.2606 0001869  83.8654 276.2551 15.08768935 95165,6918.098,95.442,541.256,538.67,0.0
52705.0,STARLINK-3844,PAYLOAD,2024-02-03 03:24:15,15.08848042,0.0001785,53.22,330.8029,55.196,304.92,-7.5526e-05,-1.49e-05,0.0,0 STARLINK-3844,1 52705U 22053BB  24034.14184423 -.00001490  00000-0 -75526-4 0  9996,2 52705  53.2200 330.8029 0001785  55.1960 304.9200 15.08848042 95311,6917.856,95.437,540.956,538.486,0.0
52705.0,STARLINK-3844,PAYLOAD,2024-02-03 04:59:38,15.08841129,0.0001569,53.2201,330.4976,87.7695,272.3476,7.5617e-05,9.16e-06,0.0,0 STARLINK-3844,1 52705U 22053BB  24034.20808092  .00000916  00000-0  75617-4 0  9999,2 52705  53.2201 330.4976 0001569  87.7695 272.3476 15.08841129 95755,6917.877,95.437,540.827,538.657,0.0
52705.0,STARLINK-3844,PAYLOAD,2024-02-04 01:39:38,15.08848445,0.0001818,53.2205,326.6285,68.7518,291.3668,-3.735e-05,-8.83e-06,0.0,0 STARLINK-3844,1 52705U 22053BB  24035.06920119 -.00000883  00000-0 -37350-4 0  9996,2 52705  53.2205 326.6285 0001818  68.7518 291.3668 15.08848445 95885,6917.855,95.437,540.977,538.462,0.0
52705.0,STARLINK-3844,PAYLOAD,2024-02-04 19:08:53,15.08840247,0.000159,53.219,323.3614,80.3861,279.7311,1.9762e-05,2.7e-07,0.0,0 STARLINK-3844,1 52705U 22053BB  24035.79784321  .00000027  00000-0  19762-4 0  9994,2 52705  53.2190 323.3614 0001590  80.3861 279.7311 15.08840247 95568,6917.88,95.438,540.845,538.645,0.0
52705.0,STARLINK-3844,PAYLOAD,2024-02-04 22:19:39,15.08835394,0.0001541,53.2178,322.7688,109.3148,250.8011,9.3265e-05,1.196e-05,0.0,0 STARLINK-3844,1 52705U 22053BB  24035.93032097  .00001196  00000-0  93265-4 0  9994,2 52705  53.2178 322.7688 0001541 109.3148 250.8011 15.08835394 96019,6917.894,95.438,540.826,538.693,0.0
52705.0,STARLINK-3844,PAYLOAD,2024-02-05 04:41:11,15.08847074,0.0001418,53.2184,321.5784,88.1362,271.9792,5.8338e-05,6.41e-06,0.0,0 STARLINK-3844,1 52705U 22053BB  24036.19527622  .00000641  00000-0  58338-4 0  9992,2 52705  53.2184 321.5784 0001418  88.1362 271.9792 15.08847074 95629,6917.859,95.437,540.705,538.743,0.0
52705.0,STARLINK-3844,PAYLOAD,2024-02-05 22:10:26,15.0883695,0.0001353,53.2186,318.3066,100.6242,259.4903,8.0694e-05,9.96e-06,0.0,0 STARLINK-3844,1 52705U 22053BB  24036.92391932  .00000996  00000-0  80694-4 0  9999,2 52705  53.2186 318.3066 0001353 100.6242 259.4903 15.08836950 96169,6917.89,95.438,540.691,538.819,0.0
52705.0,STARLINK-3844,PAYLOAD,2024-02-05 23:45:49,15.08844364,0.0001436,53.2185,318.0093,94.1103,266.0053,6.8237e-06,-1.79e-06,0.0,0 STARLINK-3844,1 52705U 22053BB  24036.99015839 -.00000179  00000-0  68237-5 0  9999,2 52705  53.2185 318.0093 0001436  94.1103 266.0053 15.08844364 95741,6917.867,95.437,540.725,538.739,0.0
52705.0,STARLINK-3844,PAYLOAD,2024-02-06 22:01:13,15.0884209,0.0001373,53.2179,313.8456,89.2734,270.8416,-2.5426e-06,-3.28e-06,0.0,0 STARLINK-3844,1 52705U 22053BB  24037.91752002 -.00000328  00000-0 -25426-5 0  9992,2 52705  53.2179 313.8456 0001373  89.2734 270.8416 15.08842090 96319,6917.874,95.437,540.689,538.789,0.0
52705.0,STARLINK-3844,PAYLOAD,2024-02-07 01:11:59,15.08843672,0.0001399,53.218,313.2512,87.3436,272.7717,1.0847e-05,-1.15e-06,0.0,0 STARLINK-3844,1 52705U 22053BB  24038.04999839 -.00000115  00000-0  10847-4 0  9991,2 52705  53.2180 313.2512 0001399  87.3436 272.7717 15.08843672 95900,6917.869,95.437,540.702,538.766,0.0
52705.0,STARLINK-3844,PAYLOAD,2024-02-07 04:22:46,15.08844058,0.0001398,53.218,312.6564,87.6446,272.4707,1.3885e-05,-6.7e-07,0.0,0 STARLINK-3844,1 52705U 22053BB  24038.18247776 -.00000067  00000-0  13885-4 0  9993,2 52705  53.2180 312.6564 0001398  87.6446 272.4707 15.08844058 96358,6917.868,95.437,540.7,538.766,0.0
